#dP2023  9 24  0  0  0.00000000      96 __u+U ITR00 FIT  IAC
## 2281      0.00000000   900.00000000 60211 0.0000000000000
+  120   C06C07C08C09C10C11C12C13C14C16C19C20C21C22C23C24C25
+        C26C27C28C29C30C32C33C34C35C36C37C38C39C40C41C42C43
+        C44C45C46E02E03E04E05E07E08E09E10E11E12E13E14E15E18
+        E19E21E24E25E26E27E30E31E33E34E36G01G02G03G04G05G06
+        G07G08G09G10G11G12G13G14G15G16G17G18G19G20G21G22G23
+        G24G25G26G27G28G29G30G31G32J02J03J04R01R02R03R04R05
+        R07R08R09R11R12R13R14R15R16R17R18R19R20R21R22R24R25
+        R26  0  0  0  0  0  0  0  0  0  0  0  0  0  0  0  0
++         7  9  9  8  8  7  6  9  6  7  6  6  7  8  6  6  7
++         6  4  5  7  7  7  6  7  7  6  7  7  8  7  6  5  7
++         7  7  6  6  6  6  6  7  6  7  6  7  6  6  5  4  6
++         6  6  6  6  6  7  6  6  6  6  6  5  6  5  5  6  6
++         6  5  6  6  6  6  6  6  7  6  6  5  5  6  5  6  6
++         6  5  5  4  7  5  6  7  6  7  8  9  7  7  7  6  7
++         7  6  6  5  7  7  5  7  7  8  6  7  9  5  6  4  6
++         6  0  0  0  0  0  0  0  0  0  0  0  0  0  0  0  0
%c M  cc GPS ccc cccc cccc cccc cccc ccccc ccccc ccccc ccccc
%c cc cc ccc ccc cccc cccc cccc cccc ccccc ccccc ccccc ccccc
%f  0.0000000  0.000000000  0.00000000000  0.000000000000000
%f  0.0000000  0.000000000  0.00000000000  0.000000000000000
%i    0    0    0    0      0      0      0      0         0
%i    0    0    0    0      0      0      0      0         0
/* INFORMATION & ANALYSIS CENTER (IAC)      ULTRA-RAPID DATA
/* S/V CLOCKS ARE ALIGNED TO GNSS TIME                      
/* G:C1WC2W R:C1PC2P E:C1XC5X C:C2IC6I J:C1CC2S             
/* PCV:IGS20_2280 OL/AL:FES2004  NONE     YN ORB:CoN CLK:CoN
*  2023 09 24 18 45  0.00000000
PC06  -1322.520555  36355.067648 -21071.206399     29.030942
PC07 -13196.511310  26172.508928  30351.809748    -55.682089
PC08 -18437.895389  36515.900796 -10704.057503    329.735172
PC09   3345.377408  39049.693269 -14333.199002    124.985451
PC10  -3745.361094  27474.532569  32065.379418   -189.238875
PC11 -18912.078514  -2985.917811  20362.186461    169.548578
PC12 -19380.716924 -19188.947605   5906.591364    924.541355
PC13 -12841.906759  36947.859507 -15978.159134    357.190885
PC14 -27580.036570   4063.268826     38.233049    465.516565
PC16  -4848.924314  33281.995243 -24984.366318    -95.160892
PC19  24465.527790  -9870.631503   9140.264859   -970.556803
PC20  26842.939421   1260.928004  -7573.390501    257.418909
PC21 -13077.545634 -12636.620102  21165.817246   -970.623128
PC22   7912.114258 -15920.104932  21503.762656   -293.761814
PC23  -9332.922870  26264.666811   1431.270250   -862.344870
PC24 -15842.226353  -4270.692746 -22582.629896    426.480195
PC25 -17180.529295  16684.584329 -14351.146019    218.415175
PC26  -5787.222768 -20851.655687 -17614.362548   -182.346526
PC27  15588.240695  23006.256906   2505.496409    203.957704
PC28   2177.953455  22093.119845  16920.469988    153.169667
PC29  14399.972801  -7542.130371 -22686.374119    178.928487
PC30  21708.067024  11278.850716 -13419.883413     -5.418166
PC32  13081.397759  12581.283846 -21194.556486   -528.221658
PC33 -24448.432011   9970.636639  -9022.029430   -964.426106
PC34 -21641.080800 -10035.178134  14482.541296    266.683974
PC35  -2910.754237 -22025.797159 -16914.977308    539.508073
PC36  17733.706900 -15502.694996  14980.755153   -210.510773
PC37   4681.150400  21582.746611  17089.220855   -835.469880
PC38 -22130.115611  35941.267941  -2124.298433    106.907514
PC39  -7452.590593  29666.287036 -28875.733638     -4.929941
PC40 -18727.305361  19325.612889  32413.281661    -37.690616
PC41  -8656.619773  15912.655851 -21181.858303   -876.291450
PC42 -26323.603936  -2255.336660   8985.511812   -538.587181
PC43 -15095.981192   6733.609159  22477.307102     41.157536
PC44 -16310.172451 -22497.297036  -2718.316757    241.499138
PC45   9024.746964 -26318.748869  -1959.763486    -29.103670
PC46  16164.472186   2930.043232  22554.755425    -86.781018
PE02  24727.691906 -16168.989404   1672.288514     65.240875
PE03  20173.764900  -6748.768201  20578.575312    -59.037507
PE04   -745.669219  17818.568642 -23623.844864   -219.428824
PE05  27877.528566   8244.861823   5572.644905     21.392681
PE07 -18981.775270 -18571.456371  13066.211402    -77.244090
PE08   1213.079081 -17522.632740  23818.514939   -151.309891
PE09  18925.073628  18522.715457 -13242.463578   -168.013851
PE10   4151.773836  29268.544007  -1683.271366   -566.191614
PE11  10211.382115  25157.277834 -11799.835800   2986.495003
PE12  -2082.222160  28515.285759   7648.810213   -710.515656
PE13  -9837.240396 -25585.236887  11166.942735    -19.718562
PE14 -21250.982541 -11611.994985   -166.368242    349.766600
PE15   2294.926431 -28379.136613  -8082.033213    -55.866046
PE18  29854.749900   7662.746220  -9389.078792    568.763219
PE19 -21967.840082   4687.726294 -19278.387618  -1563.007561
PE21 -23585.179400   1818.100825 -17789.340471   -554.527162
PE24   8115.879905  14836.836557  24286.663601   -339.515514
PE25  23420.723254  -1481.578448  18048.175439     -2.284996
PE26 -16245.827173  -7049.003013  23717.757531    232.057714
PE27  -8724.466370 -14372.612788 -24352.926864   -158.128627
PE30  11530.031485 -21928.465841 -16191.573527   -526.549596
PE31 -11104.464281  21925.211205  16512.088019     -5.883625
PE33 -13146.229942  13901.396791  22590.849678     -0.213950
PE34  12895.500322 -14532.630064 -22330.986393    -68.805196
PE36  16037.869176   7873.980275 -23599.567987   -120.776117
PG01 -13499.891109   7257.243783  21293.599932    164.780080
PG02 -15444.875144     27.431330  22124.076299   -550.072948
PG03 -23060.058311  12022.550433   4954.433665   -117.163897
PG04 -20268.568373   2896.987405 -16977.122491    165.525567
PG05  20213.485256   -392.962203 -17459.480628   -143.974150
PG06   5779.576998  25182.247840  -5882.458832    544.139156
PG07  -6450.722012  22472.917270 -11663.451732     58.291092
PG08 -25026.816340  -4450.522651   8306.976637   -143.895649
PG09 -12323.583969  10763.863904 -21019.244474    -50.805347
PG10   2569.477527 -17832.009176  19581.660406    -54.695354
PG11  12203.631917  16617.875950 -16757.254002   -384.421203
PG12  23957.781972  -8248.593643   7567.132037   -428.471636
PG13  22906.195041  13549.645705   1650.778216    576.397106
PG14  -6367.210850  19062.151336  17303.036093    194.642798
PG15  25118.237643   1041.561715   8447.282054     80.686042
PG16 -17280.328307  -5886.981113 -19755.276713   -449.318905
PG17   4116.022775  17635.928645  19824.321052    723.844498
PG18   5437.684920 -23740.894705 -10368.559059   -427.957324
PG19  12733.176929  18777.199147  13884.704087    375.957708
PG20  12486.123649   9254.395276 -21486.123425    410.204702
PG21 -15944.203802  -4075.556629  21519.883481    148.231263
PG22    288.568088  16757.927718  21123.390492    115.502117
PG23  14317.002612 -19587.276182  10602.877181     72.991069
PG24  15420.304971  -2400.585743  21111.565800   -328.502560
PG25  19161.854163 -17705.807533  -4450.641827    469.444705
PG26  -8843.275594 -13234.536316 -21371.543730    226.846148
PG27 -23006.220955 -13320.303860  -3533.428856    -44.793009
PG28  -5784.646089 -25645.487190  -3811.220553    -14.562749
PG29  12766.190651  -9429.557783 -21359.571730   -609.595212
PG30    165.404240  26272.450474  -2639.380543   -484.816193
PG31 -10611.531738 -20397.021430 -13110.513760   -223.814891
PG32  -9481.739928 -17819.441982  17546.175316   -563.003620
PJ02 -30654.630530  28578.539393  10059.224445     -4.545313
PJ03 -26047.059344  24200.974900  27758.908334     -3.457891
PJ04 -32405.354704  21592.097771 -11149.471079     70.759915
PR01  15697.271404  -8529.532176  18205.069676     66.332339
PR02  -3304.581826 -10871.159064  22881.159766    -22.404657
PR03 -20092.694552  -7340.377230  13984.067397     85.830734
PR04 -25406.868803    -50.549962  -2360.901717    204.142513
PR05 -17120.180453   7296.026791 -17455.628168    119.541248
PR07  20599.565924   7024.072421 -13224.120979     65.378337
PR08  25351.910159   -283.721217   2672.139549    -72.657367
PR09  -4528.447506  21051.523683  13630.912521    144.044710
PR11  14931.209484  -6654.630452  19600.529619   -174.041252
PR12  14735.702003 -20493.562508   3658.948417     31.633816
PR13   6385.201443 -21651.897225 -11886.467962    -39.545880
PR14  -7230.148026  -9254.575122 -22629.661135     25.297618
PR15 -15423.989343   7756.868108 -18751.784106     85.922177
PR16 -14643.441306  20492.252500  -3909.457004     19.000818
PR17 -14450.258838 -19069.331341   8783.507844     19.968479
PR18 -13450.046943  -5668.858126  20947.101850    103.553250
PR19  -6811.169006   9281.393745  22765.320898   -248.462595
PR20   5935.326593  22809.672090   9727.068752   -100.610699
PR21  14456.232468  18698.687712  -9639.082159    -40.505464
PR22  13322.668136   4917.232999 -21160.645968     85.643696
PR24  -6989.468797 -22787.411705  -9033.073829    -25.656268
PR25  13708.155428  19703.191547  -8668.169547     31.341464
PR26  25427.546510   -199.906098   2155.156264    -22.842959
EOF
